STARLINK-1958           
1 47559U 21009M   26068.89583456  .00097472  00000+0  87609-3 0  9993
2 47559  53.0457 320.4715 0005390 347.5018  12.5863 15.67474201281679
STARLINK-11109 [DTC]    
1 60306U 24133F   26068.42637643  .00005944  00000+0  53984-4 0  9999
2 60306  53.1589 147.4537 0001272 109.9145 250.2010 15.69664331 93691
