[{"OBJECT_NAME":"STARLINK-1958","OBJECT_ID":"2021-009M","EPOCH":"2026-03-09T21:30:00.106848","MEAN_MOTION":15.67474201,"ECCENTRICITY":0.00053899,"INCLINATION":53.0457,"RA_OF_ASC_NODE":320.4715,"ARG_OF_PERICENTER":347.5018,"MEAN_ANOMALY":12.5863,"EPHEMERIS_TYPE":0,"CLASSIFICATION_TYPE":"U","NORAD_CAT_ID":47559,"ELEMENT_SET_NO":999,"REV_AT_EPOCH":28167,"BSTAR":0.00087609407,"MEAN_MOTION_DOT":0.00097472,"MEAN_MOTION_DDOT":0},{"OBJECT_NAME":"STARLINK-11109 [DTC]","OBJECT_ID":"2024-133F","EPOCH":"2026-03-09T10:13:58.923552","MEAN_MOTION":15.69664331,"ECCENTRICITY":0.00012727,"INCLINATION":53.1589,"RA_OF_ASC_NODE":147.4537,"ARG_OF_PERICENTER":109.9145,"MEAN_ANOMALY":250.201,"EPHEMERIS_TYPE":0,"CLASSIFICATION_TYPE":"U","NORAD_CAT_ID":60306,"ELEMENT_SET_NO":999,"REV_AT_EPOCH":9369,"BSTAR":5.3983673e-5,"MEAN_MOTION_DOT":5.944e-5,"MEAN_MOTION_DDOT":0}]
